NORAD_CAT_ID,OBJECT_NAME,OBJECT_TYPE,EPOCH,MEAN_MOTION,ECCENTRICITY,INCLINATION,RA_OF_ASC_NODE,ARG_OF_PERICENTER,MEAN_ANOMALY,BSTAR,MEAN_MOTION_DOT,MEAN_MOTION_DDOT,TLE_LINE0,TLE_LINE1,TLE_LINE2,SEMIMAJOR_AXIS,PERIOD,APOGEE,PERIGEE,DECAYED
53783.0,STARLINK-4536,PAYLOAD,2023-11-24 13:59:55,15.08832918,0.0001138,53.2191,67.4715,106.4876,253.6242,3.5496e-05,2.77e-06,0.0,0 STARLINK-4536,1 53783U 22111L   23328.58327644  .00000277  00000-0  35496-4 0  9997,2 53783  53.2191  67.4715 0001138 106.4876 253.6242 15.08832918 67477,6917.902,95.438,540.554,538.98,0.0
53783.0,STARLINK-4536,PAYLOAD,2023-11-24 17:10:41,15.08837998,0.0001035,53.219,66.8755,95.8497,264.2613,7.9679e-05,9.8e-06,0.0,0 STARLINK-4536,1 53783U 22111L   23328.71575304  .00000980  00000-0  79679-4 0  9992,2 53783  53.2190  66.8755 0001035  95.8497 264.2613 15.08837998 67494,6917.887,95.438,540.468,539.036,0.0
53783.0,STARLINK-4536,PAYLOAD,2023-11-25 13:50:40,15.08859301,0.0001276,53.2185,63.005,93.5122,266.6016,0.00026325,3.906e-05,0.0,0 STARLINK-4536,1 53783U 22111L   23329.57685994  .00003906  00000-0  26325-3 0  9994,2 53783  53.2185  63.0050 0001276  93.5122 266.6016 15.08859301 67622,6917.821,95.436,540.569,538.804,0.0
53783.0,STARLINK-4536,PAYLOAD,2023-11-26 12:06:04,15.08856166,0.0001251,53.2177,58.8481,68.3627,291.7498,0.00026557,3.943e-05,0.0,0 STARLINK-4536,1 53783U 22111L   23330.50422048  .00003943  00000-0  26557-3 0  9996,2 53783  53.2177  58.8481 0001251  68.3627 291.7498 15.08856166 66950,6917.831,95.437,540.561,538.831,0.0
53783.0,STARLINK-4536,PAYLOAD,2023-11-26 13:41:27,15.08862093,0.0001221,53.2181,58.5481,83.1205,276.9926,0.00034129,5.151e-05,0.0,0 STARLINK-4536,1 53783U 22111L   23330.57045617  .00005151  00000-0  34129-3 0  9993,2 53783  53.2181  58.5481 0001221  83.1205 276.9926 15.08862093 67774,6917.813,95.436,540.523,538.833,0.0
53783.0,STARLINK-4536,PAYLOAD,2023-11-27 11:56:53,15.08828419,0.0001396,53.219,54.3841,81.24,278.875,-0.00029033,-4.904e-05,0.0,0 STARLINK-4536,1 53783U 22111L   23331.49783714 -.00004904  00000-0 -29033-3 0  9997,2 53783  53.2190  54.3841 0001396  81.2400 278.8750 15.08828419 67104,6917.916,95.438,540.747,538.815,0.0
53783.0,STARLINK-4536,PAYLOAD,2023-11-27 13:32:16,15.08829212,0.0001507,53.2188,54.0878,61.102,299.0123,-0.00022774,-3.91e-05,0.0,0 STARLINK-4536,1 53783U 22111L   23331.56407807 -.00003910  00000-0 -22774-3 0  9992,2 53783  53.2188  54.0878 0001507  61.1020 299.0123 15.08829212 67928,6917.913,95.438,540.821,538.736,0.0
53783.0,STARLINK-4536,PAYLOAD,2023-11-28 11:47:39,15.08858042,0.0001557,53.2199,49.9218,95.087,265.03,0.00020063,2.908e-05,0.0,0 STARLINK-4536,1 53783U 22111L   23332.49142487  .00002908  00000-0  20063-3 0  9998,2 53783  53.2199  49.9218 0001557  95.0870 265.0300 15.08858042 67254,6917.825,95.436,540.767,538.613,0.0
53783.0,STARLINK-4536,PAYLOAD,2023-11-29 11:38:27,15.08840867,0.0001497,53.2194,45.4643,89.2505,270.8659,0.00030649,4.593e-05,0.0,0 STARLINK-4536,1 53783U 22111L   23333.48503936  .00004593  00000-0  30649-3 0  9991,2 53783  53.2194  45.4643 0001497  89.2505 270.8659 15.08840867 67409,6917.878,95.437,540.778,538.707,0.0
53783.0,STARLINK-4536,PAYLOAD,2023-12-01 03:23:05,15.08841604,0.0002042,53.2189,38.0339,129.0734,231.044,-0.00010865,-2.017e-05,0.0,0 STARLINK-4536,1 53783U 22111L   23335.14103895 -.00002017  00000-0 -10865-3 0  9995,2 53783  53.2189  38.0339 0002042 129.0734 231.0440 15.08841604 67651,6917.875,95.437,541.153,538.328,0.0
53783.0,STARLINK-4536,PAYLOAD,2023-12-01 11:20:01,15.08846656,0.0002005,53.2199,36.5456,140.2126,219.9014,-1.542e-05,-5.34e-06,0.0,0 STARLINK-4536,1 53783U 22111L   23335.47223791 -.00000534  00000-0 -15420-4 0  9994,2 53783  53.2199  36.5456 0002005 140.2126 219.9014 15.08846656 68514,6917.86,95.437,541.112,538.338,0.0
53783.0,STARLINK-4536,PAYLOAD,2023-12-02 09:35:23,15.08870993,0.0001647,53.2188,32.3831,110.9818,249.1351,0.00048901,7.51e-05,0.0,0 STARLINK-4536,1 53783U 22111L   23336.39958091  .00007510  00000-0  48901-3 0  9992,2 53783  53.2188  32.3831 0001647 110.9818 249.1351 15.08870993 67841,6917.786,95.436,540.79,538.511,0.0
53783.0,STARLINK-4536,PAYLOAD,2023-12-02 12:46:09,15.08874076,0.0001382,53.2184,31.7857,96.3499,263.7651,0.00048376,7.427e-05,0.0,0 STARLINK-4536,1 53783U 22111L   23336.53205676  .00007427  00000-0  48376-3 0  9995,2 53783  53.2184  31.7857 0001382  96.3499 263.7651 15.08874076 68679,6917.776,95.435,540.597,538.685,0.0
53783.0,STARLINK-4536,PAYLOAD,2023-12-03 03:04:39,15.08825557,0.0001097,53.2181,29.1076,107.9447,252.1664,-0.00029293,-4.945e-05,0.0,0 STARLINK-4536,1 53783U 22111L   23337.12824070 -.00004945  00000-0 -29293-3 0  9997,2 53783  53.2181  29.1076 0001097 107.9447 252.1664 15.08825557 67951,6917.925,95.438,540.548,539.031,0.0
53783.0,STARLINK-4536,PAYLOAD,2023-12-03 11:01:36,15.08810922,0.000129,53.2179,27.621,69.4286,290.6844,-0.00043076,-7.131e-05,0.0,0 STARLINK-4536,1 53783U 22111L   23337.45945373 -.00007131  00000-0 -43076-3 0  9998,2 53783  53.2179  27.6210 0001290  69.4286 290.6844 15.08810922 68003,6917.969,95.439,540.727,538.942,0.0
53783.0,STARLINK-4536,PAYLOAD,2023-12-04 10:52:25,15.08832962,0.0001593,53.2185,23.1633,73.2381,286.8786,1.46e-05,-5.6e-07,0.0,0 STARLINK-4536,1 53783U 22111L   23338.45306958 -.00000056  00000-0  14600-4 0  9999,2 53783  53.2185  23.1633 0001593  73.2381 286.8786 15.08832962 68151,6917.902,95.438,540.869,538.665,0.0
53783.0,STARLINK-4536,PAYLOAD,2023-12-05 09:07:49,15.08844479,0.0001926,53.2185,19.0042,65.6141,294.5052,0.00080661,0.00012574,0.0,0 STARLINK-4536,1 53783U 22111L   23339.38043075  .00012574  00000-0  80661-3 0  9996,2 53783  53.2185  19.0042 0001926  65.6141 294.5052 15.08844479 68291,6917.867,95.437,541.064,538.399,0.0
53783.0,STARLINK-4536,PAYLOAD,2023-12-06 08:58:34,15.08863421,0.0001647,53.2188,14.5415,87.2926,272.8255,0.00018315,2.63e-05,0.0,0 STARLINK-4536,1 53783U 22111L   23340.37401225  .00002630  00000-0  18315-3 0  9991,2 53783  53.2188  14.5415 0001647  87.2926 272.8255 15.08863421 69258,6917.809,95.436,540.813,538.534,0.0
53783.0,STARLINK-4536,PAYLOAD,2023-12-07 02:27:49,15.08855484,0.0001796,53.2191,11.2705,100.1592,259.9602,-9.678e-05,-1.829e-05,0.0,0 STARLINK-4536,1 53783U 22111L   23341.10265467 -.00001829  00000-0 -96780-4 0  9993,2 53783  53.2191  11.2705 0001796 100.1592 259.9602 15.08855484 68551,6917.833,95.437,540.941,538.456,0.0
53783.0,STARLINK-4536,PAYLOAD,2023-12-07 08:49:21,15.08850172,0.0001602,53.2187,10.08,107.4414,252.6754,-0.0001528,-2.72e-05,0.0,0 STARLINK-4536,1 53783U 22111L   23341.36761547 -.00002720  00000-0 -15280-3 0  9997,2 53783  53.2187  10.0800 0001602 107.4414 252.6754 15.08850172 69400,6917.849,95.437,540.823,538.606,0.0
53783.0,STARLINK-4536,PAYLOAD,2023-12-08 11:50:54,15.08849845,0.0001479,53.2182,5.0222,104.7969,255.3187,-7.0851e-05,-1.416e-05,0.0,0 STARLINK-4536,1 53783U 22111L   23342.49368599 -.00001416  00000-0 -70851-4 0  9999,2 53783  53.2182   5.0222 0001479 104.7969 255.3187 15.08849845 68767,6917.85,95.437,540.738,538.692,0.0
53783.0,STARLINK-4536,PAYLOAD,2023-12-08 15:01:40,15.08854006,0.0001249,53.2177,4.4273,93.6815,266.432,-6.7909e-05,-1.369e-05,0.0,0 STARLINK-4536,1 53783U 22111L   23342.62616246 -.00001369  00000-0 -67909-4 0  9996,2 53783  53.2177   4.4273 0001249  93.6815 266.4320 15.08854006 69590,6917.838,95.437,540.567,538.839,0.0
53783.0,STARLINK-4536,PAYLOAD,2023-12-09 06:55:32,15.08832984,0.0001394,53.2173,1.4548,97.5892,262.5258,4.4631e-05,4.22e-06,0.0,0 STARLINK-4536,1 53783U 22111L   23343.28857452  .00000422  00000-0  44631-4 0  9999,2 53783  53.2173   1.4548 0001394  97.5892 262.5258 15.08832984 68886,6917.902,95.438,540.731,538.802,0.0
53783.0,STARLINK-4536,PAYLOAD,2023-12-10 09:57:06,15.08839692,0.0001287,53.2174,356.401,86.4397,273.6742,-7.3991e-06,-4.06e-06,0.0,0 STARLINK-4536,1 53783U 22111L   23344.41465537 -.00000406  00000-0 -73991-5 0  9990,2 53783  53.2174 356.4010 0001287  86.4397 273.6742 15.08839692 69056,6917.881,95.438,540.637,538.856,0.0
53783.0,STARLINK-4536,PAYLOAD,2023-12-11 08:12:30,15.08839234,0.0001394,53.2175,352.2379,90.9963,269.1189,7.5571e-05,9.15e-06,0.0,0 STARLINK-4536,1 53783U 22111L   23345.34201473  .00000915  00000-0  75571-4 0  9998,2 53783  53.2175 352.2379 0001394  90.9963 269.1189 15.08839234 70001,6917.883,95.438,540.712,538.783,0.0
53783.0,STARLINK-4536,PAYLOAD,2023-12-12 08:03:16,15.08844196,0.0001786,53.2188,347.7762,69.6523,290.466,9.7506e-05,1.264e-05,0.0,0 STARLINK-4536,1 53783U 22111L   23346.33561332  .00001264  00000-0  97506-4 0  9991,2 53783  53.2188 347.7762 0001786  69.6523 290.4660 15.08844196 69349,6917.868,95.437,540.968,538.497,0.0
53783.0,STARLINK-4536,PAYLOAD,2023-12-13 06:18:41,15.0884112,0.000179,53.2188,343.6137,71.4695,288.6491,2.755e-05,1.5e-06,0.0,0 STARLINK-4536,1 53783U 22111L   23347.26297629  .00000150  00000-0  27550-4 0  9994,2 53783  53.2188 343.6137 0001790  71.4695 288.6491 15.08841120 69486,6917.877,95.437,540.98,538.504,0.0
53783.0,STARLINK-4536,PAYLOAD,2023-12-14 06:09:27,15.08843503,0.0001563,53.2185,339.1513,86.2627,273.8544,1.733e-05,-1.2e-07,0.0,0 STARLINK-4536,1 53783U 22111L   23348.25657259 -.00000012  00000-0  17330-4 0  9996,2 53783  53.2185 339.1513 0001563  86.2627 273.8544 15.08843503 70448,6917.87,95.437,540.816,538.653,0.0
53783.0,STARLINK-4536,PAYLOAD,2023-12-15 04:24:51,15.0884003,0.0001497,53.2181,334.9909,99.0601,261.0561,3.8714e-05,3.28e-06,0.0,0 STARLINK-4536,1 53783U 22111L   23349.18393293  .00000328  00000-0  38714-4 0  9992,2 53783  53.2181 334.9909 0001497  99.0601 261.0561 15.08840030 69770,6917.88,95.438,540.781,538.71,0.0
53783.0,STARLINK-4536,PAYLOAD,2023-12-15 06:00:14,15.08841362,0.0001515,53.2182,334.6922,97.3194,262.7971,4.9527e-05,5e-06,0.0,0 STARLINK-4536,1 53783U 22111L   23349.25017180  .00000500  00000-0  49527-4 0  9994,2 53783  53.2182 334.6922 0001515  97.3194 262.7971 15.08841362 70596,6917.876,95.437,540.789,538.693,0.0
